{\rtf1\ansi\ansicpg1252\cocoartf2580
\cocoatextscaling0\cocoaplatform0{\fonttbl\f0\fswiss\fcharset0 Helvetica;\f1\fnil\fcharset0 Menlo-Regular;}
{\colortbl;\red255\green255\blue255;\red0\green0\blue0;\red202\green202\blue202;}
{\*\expandedcolortbl;;\cssrgb\c0\c0\c0;\cssrgb\c83137\c83137\c83137;}
\paperw11900\paperh16840\margl1440\margr1440\vieww12180\viewh12840\viewkind0
\pard\tx720\tx1440\tx2160\tx2880\tx3600\tx4320\tx5040\tx5760\tx6480\tx7200\tx7920\tx8640\pardirnatural\partightenfactor0

\f0\fs24 \cf0 Epoch of osculation 2024/01/09\
\pard\tx720\tx1440\tx2160\tx2880\tx3600\tx4320\tx5040\tx5760\tx6480\tx7200\tx7920\tx8640\pardirnatural\partightenfactor0
\cf2 \expnd0\expndtw0\kerning0
Epoch of osculation (MJD) 2460249.5\cf0 \kerning1\expnd0\expndtw0 \
\cf2 \expnd0\expndtw0\kerning0
Mean Anomaly 175.9\cf0 \kerning1\expnd0\expndtw0 \
\cf2 \expnd0\expndtw0\kerning0
Argument of perihelion 48.48\cf0 \kerning1\expnd0\expndtw0 \
\cf2 \expnd0\expndtw0\kerning0
long. Of ascending node 247.23\cf0 \kerning1\expnd0\expndtw0 \
\cf2 \expnd0\expndtw0\kerning0
Inclination 16.66\cf0 \kerning1\expnd0\expndtw0 \
\cf2 \expnd0\expndtw0\kerning0
Eccentricity 0.111\cf0 \kerning1\expnd0\expndtw0 \
\pard\tx720\tx1440\tx2160\tx3023\tx3600\tx4320\tx5040\tx5760\tx6480\tx7200\tx7920\tx8640\pardirnatural\partightenfactor0
\cf2 \expnd0\expndtw0\kerning0
Semimajor axis 5.23\cf0 \kerning1\expnd0\expndtw0 \
\pard\tx720\tx1440\tx2160\tx2880\tx3600\tx4320\tx5040\tx5760\tx6480\tx7200\tx7920\tx8640\pardirnatural\partightenfactor0
\cf2 \expnd0\expndtw0\kerning0
Absolute magnitude 8.68\cf0 \kerning1\expnd0\expndtw0 \
 Slope parameter 0.15\
\
\pard\pardeftab720\sl360\partightenfactor0

\f1 \cf3 \expnd0\expndtw0\kerning0
\
\
}